[{"OBJECT_NAME":"STARLINK-1350","OBJECT_ID":"2020-025E","EPOCH":"2026-03-09T06:29:12.850368","MEAN_MOTION":15.36101991,"ECCENTRICITY":0.00022158,"INCLINATION":53.0734,"RA_OF_ASC_NODE":35.1149,"ARG_OF_PERICENTER":70.5154,"MEAN_ANOMALY":289.6087,"EPHEMERIS_TYPE":0,"CLASSIFICATION_TYPE":"U","NORAD_CAT_ID":45535,"ELEMENT_SET_NO":999,"REV_AT_EPOCH":32609,"BSTAR":0.00042940249,"MEAN_MOTION_DOT":0.00014967,"MEAN_MOTION_DDOT":0},{"OBJECT_NAME":"PEGASUS DEB","OBJECT_ID":"1994-029AG","EPOCH":"2026-03-09T11:16:42.963744","MEAN_MOTION":15.37636263,"ECCENTRICITY":0.0031206,"INCLINATION":82.0362,"RA_OF_ASC_NODE":86.2933,"ARG_OF_PERICENTER":155.6019,"MEAN_ANOMALY":204.671,"EPHEMERIS_TYPE":0,"CLASSIFICATION_TYPE":"U","NORAD_CAT_ID":23986,"ELEMENT_SET_NO":999,"REV_AT_EPOCH":61542,"BSTAR":0.00061808813,"MEAN_MOTION_DOT":0.00023279,"MEAN_MOTION_DDOT":0}]
